ONEWEB-0395             
1 50475U 21132G   26016.03127318 -.00000220  00000+0 -65620-3 0  9997
2 50475  87.8817  51.3640 0001856 104.0790 256.0544 13.11416153195773
ONEWEB-0396             
1 50476U 21132H   26016.26237712  .00000087  00000+0  18683-3 0  9999
2 50476  87.9185   5.6129 0002026  85.1441 274.9922 13.18685846201613
ONEWEB-0397             
1 50477U 21132J   26016.20133555  .00000033  00000+0  51560-4 0  9997
2 50477  87.9187   5.6262 0001962  82.4377 277.6977 13.18686481201582
ONEWEB-0398             
1 50478U 21132K   26016.15166080  .00000532  00000+0  14640-2 0  9991
2 50478  87.8831  51.3160 0001754 108.5286 251.6032 13.11419580195685
ONEWEB-0399             
1 50479U 21132L   26016.13810415  .00000036  00000+0  64749-4 0  9994
2 50479  87.8823  51.3303 0002353  94.2336 265.9061 13.11418898195679
ONEWEB-0400             
1 50480U 21132M   26016.25577306  .00000017  00000+0  10361-4 0  9998
2 50480  87.9185   5.6054 0001680  91.8045 268.3280 13.18685163201586
ONEWEB-0401             
1 50481U 21132N   26016.22442893  .00000032  00000+0  48346-4 0  9999
2 50481  87.9184   5.6078 0001800  80.0378 280.0957 13.18687755201586
ONEWEB-0402             
1 50482U 21132P   26016.26401183 -.00000053  00000+0 -16830-3 0  9998
2 50482  87.9185   5.5923 0001851  68.8733 291.2597 13.18684647201616
